{
  "norad_id": 58894,
  "name": "STARLINK-31243",
  "history": [
    {
      "epoch": "2026-03-28T17:21:40.748256Z",
      "apogee_km": 476.07648641185006,
      "perigee_km": 474.3960392877989,
      "latitude_deg": -2.4380724867467974e-05,
      "longitude_deg": 147.56025754378453,
      "height_km": 476.30567313475143,
      "semi_major_axis_km": 6853.373262849824,
      "eccentricity": 0.0001226,
      "inclination_deg": 53.16,
      "raan_deg": 234.1198,
      "arg_perigee_deg": 101.7596,
      "mean_anomaly_deg": 258.3542,
      "mean_motion_rev_day": 15.30192902
    },
    {
      "epoch": "2026-03-29T02:46:00.780384Z",
      "apogee_km": 475.8971076649068,
      "perigee_km": 474.6484164062649,
      "latitude_deg": 2.2043857689899584e-05,
      "longitude_deg": 4.271352074673232,
      "height_km": 476.3052178010773,
      "semi_major_axis_km": 6853.409762035586,
      "eccentricity": 9.11e-05,
      "inclination_deg": 53.1609,
      "raan_deg": 232.3006,
      "arg_perigee_deg": 102.3734,
      "mean_anomaly_deg": 257.7369,
      "mean_motion_rev_day": 15.30180678
    },
    {
      "epoch": "2026-03-30T02:16:48.750816Z",
      "apogee_km": 477.0119359005812,
      "perigee_km": 473.4810727191598,
      "latitude_deg": 3.434242748361938e-05,
      "longitude_deg": 6.056327048696746,
      "height_km": 475.45784143374067,
      "semi_major_axis_km": 6853.38350430987,
      "eccentricity": 0.0002576,
      "inclination_deg": 53.1592,
      "raan_deg": 227.7511,
      "arg_perigee_deg": 67.1674,
      "mean_anomaly_deg": 292.9599,
      "mean_motion_rev_day": 15.30189472
    },
    {
      "epoch": "2026-03-30T02:16:48.751680Z",
      "apogee_km": 477.01221003592127,
      "perigee_km": 473.4807985838197,
      "latitude_deg": 3.093146779745872e-05,
      "longitude_deg": 6.0563208974713465,
      "height_km": 475.4577350616415,
      "semi_major_axis_km": 6853.38350430987,
      "eccentricity": 0.00025764,
      "inclination_deg": 53.1592,
      "raan_deg": 227.7511,
      "arg_perigee_deg": 67.1674,
      "mean_anomaly_deg": 292.9599,
      "mean_motion_rev_day": 15.30189472
    },
    {
      "epoch": "2026-03-30T13:15:11.185920Z",
      "apogee_km": 476.3004902606981,
      "perigee_km": 474.20705351551806,
      "latitude_deg": -3.1009248790067765e-05,
      "longitude_deg": -161.111341647337,
      "height_km": 475.6988527382751,
      "semi_major_axis_km": 6853.390771888108,
      "eccentricity": 0.00015273,
      "inclination_deg": 53.1604,
      "raan_deg": 225.6276,
      "arg_perigee_deg": 64.362,
      "mean_anomaly_deg": 295.7538,
      "mean_motion_rev_day": 15.30187038
    },
    {
      "epoch": "2026-03-30T17:57:20.235168Z",
      "apogee_km": 475.99599020150254,
      "perigee_km": 474.49414005575,
      "latitude_deg": 4.282458852334008e-05,
      "longitude_deg": 127.24788301364674,
      "height_km": 476.0595947158026,
      "semi_major_axis_km": 6853.382065128626,
      "eccentricity": 0.00010957,
      "inclination_deg": 53.16,
      "raan_deg": 224.7176,
      "arg_perigee_deg": 83.594,
      "mean_anomaly_deg": 276.5186,
      "mean_motion_rev_day": 15.30189954
    }
  ]
}